{
  "type": "FeatureCollection",
  "features": [
    {
      "type": "Feature",
      "properties": {
        "norad_id": 37528,
        "name": "COSMOS 2251 DEB",
        "group": "cosmos-2251-debris",
        "lat": -28.941610001635247,
        "lon": 130.48177452329008,
        "alt_km": 718.5579855458254,
        "timestamp": "2025-12-03T10:52:57.854260+00:00",
        "meta_object_name": "COSMOS 2251 DEB",
        "meta_object_id": "1993-036BNH",
        "meta_epoch": "2025-12-01T04:23:44.422656",
        "meta_mean_motion": 14.50451173,
        "meta_eccentricity": 0.0020905,
        "meta_inclination": 74.0362,
        "meta_ra_of_asc_node": 143.8539,
        "meta_arg_of_pericenter": 293.085,
        "meta_mean_anomaly": 66.8106,
        "meta_ephemeris_type": 0,
        "meta_classification_type": "U",
        "meta_norad_cat_id": 37528,
        "meta_element_set_no": 999,
        "meta_rev_at_epoch": 85763,
        "meta_bstar": 0.0005005,
        "meta_mean_motion_dot": 1.935e-05,
        "meta_mean_motion_ddot": 0,
        "tle_line1": "1 37528U 93036BNH 25335.18315304  .00001935  00000+0  50050-3 0  9999",
        "tle_line2": "2 37528  74.0362 143.8539 0020905 293.0850  66.8106 14.50451173857632"
      },
      "geometry": {
        "type": "Point",
        "coordinates": [
          130.48177452329008,
          -28.941610001635247
        ]
      }
    },
    {
      "type": "Feature",
      "properties": {
        "norad_id": 37530,
        "name": "COSMOS 2251 DEB",
        "group": "cosmos-2251-debris",
        "lat": 50.00807111881728,
        "lon": 10.604286608947348,
        "alt_km": 753.6130520130228,
        "timestamp": "2025-12-03T10:52:57.854271+00:00",
        "meta_object_name": "COSMOS 2251 DEB",
        "meta_object_id": "1993-036BNK",
        "meta_epoch": "2025-11-30T19:50:14.646624",
        "meta_mean_motion": 14.34478642,
        "meta_eccentricity": 0.00255427,
        "meta_inclination": 74.0356,
        "meta_ra_of_asc_node": 355.4602,
        "meta_arg_of_pericenter": 61.4891,
        "meta_mean_anomaly": 111.2815,
        "meta_ephemeris_type": 0,
        "meta_classification_type": "U",
        "meta_norad_cat_id": 37530,
        "meta_element_set_no": 999,
        "meta_rev_at_epoch": 85061,
        "meta_bstar": 0.00021143929,
        "meta_mean_motion_dot": 5.72e-06,
        "meta_mean_motion_ddot": 0,
        "tle_line1": "1 37530U 93036BNK 25334.82655841  .00000572  00000+0  21144-3 0  9993",
        "tle_line2": "2 37530  74.0356 355.4602 0025542  61.4891 111.2815 14.34478642850619"
      },
      "geometry": {
        "type": "Point",
        "coordinates": [
          10.604286608947348,
          50.00807111881728
        ]
      }
    },
    {
      "type": "Feature",
      "properties": {
        "norad_id": 37532,
        "name": "COSMOS 2251 DEB",
        "group": "cosmos-2251-debris",
        "lat": -65.36663183684406,
        "lon": -165.65539827450334,
        "alt_km": 749.6920323539098,
        "timestamp": "2025-12-03T10:52:57.854281+00:00",
        "meta_object_name": "COSMOS 2251 DEB",
        "meta_object_id": "1993-036BNM",
        "meta_epoch": "2025-12-02T23:37:55.500096",
        "meta_mean_motion": 14.4238225,
        "meta_eccentricity": 0.0015676,
        "meta_inclination": 74.0505,
        "meta_ra_of_asc_node": 233.7976,
        "meta_arg_of_pericenter": 335.7247,
        "meta_mean_anomaly": 40.2834,
        "meta_ephemeris_type": 0,
        "meta_classification_type": "U",
        "meta_norad_cat_id": 37532,
        "meta_element_set_no": 999,
        "meta_rev_at_epoch": 84775,
        "meta_bstar": 0.00031017,
        "meta_mean_motion_dot": 1e-05,
        "meta_mean_motion_ddot": 0,
        "tle_line1": "1 37532U 93036BNM 25336.98467014  .00001000  00000+0  31017-3 0  9994",
        "tle_line2": "2 37532  74.0505 233.7976 0015676 335.7247  40.2834 14.42382250847759"
      },
      "geometry": {
        "type": "Point",
        "coordinates": [
          -165.65539827450334,
          -65.36663183684406
        ]
      }
    },
    {
      "type": "Feature",
      "properties": {
        "norad_id": 37533,
        "name": "COSMOS 2251 DEB",
        "group": "cosmos-2251-debris",
        "lat": -44.585332034261675,
        "lon": -168.17750483628146,
        "alt_km": 778.4492533204739,
        "timestamp": "2025-12-03T10:52:57.854292+00:00",
        "meta_object_name": "COSMOS 2251 DEB",
        "meta_object_id": "1993-036BNN",
        "meta_epoch": "2025-12-02T21:29:58.798752",
        "meta_mean_motion": 14.12086201,
        "meta_eccentricity": 0.0158519,
        "meta_inclination": 74.0692,
        "meta_ra_of_asc_node": 209.1556,
        "meta_arg_of_pericenter": 268,
        "meta_mean_anomaly": 90.298,
        "meta_ephemeris_type": 0,
        "meta_classification_type": "U",
        "meta_norad_cat_id": 37533,
        "meta_element_set_no": 999,
        "meta_rev_at_epoch": 62782,
        "meta_bstar": 0.0016783,
        "meta_mean_motion_dot": 3.44e-05,
        "meta_mean_motion_ddot": 0,
        "tle_line1": "1 37533U 93036BNN 25336.89581943  .00003440  00000+0  16783-2 0  9995",
        "tle_line2": "2 37533  74.0692 209.1556 0158519 268.0000  90.2980 14.12086201627822"
      },
      "geometry": {
        "type": "Point",
        "coordinates": [
          -168.17750483628146,
          -44.585332034261675
        ]
      }
    },
    {
      "type": "Feature",
      "properties": {
        "norad_id": 37535,
        "name": "COSMOS 2251 DEB",
        "group": "cosmos-2251-debris",
        "lat": 49.152999614705834,
        "lon": -108.1605229574784,
        "alt_km": 698.2516792480283,
        "timestamp": "2025-12-03T10:52:57.854302+00:00",
        "meta_object_name": "COSMOS 2251 DEB",
        "meta_object_id": "1993-036BNQ",
        "meta_epoch": "2025-12-02T18:23:39.005088",
        "meta_mean_motion": 14.5832597,
        "meta_eccentricity": 0.0028279,
        "meta_inclination": 74.0242,
        "meta_ra_of_asc_node": 92.4973,
        "meta_arg_of_pericenter": 232.6433,
        "meta_mean_anomaly": 250.324,
        "meta_ephemeris_type": 0,
        "meta_classification_type": "U",
        "meta_norad_cat_id": 37535,
        "meta_element_set_no": 999,
        "meta_rev_at_epoch": 85179,
        "meta_bstar": 0.0012368,
        "meta_mean_motion_dot": 5.729e-05,
        "meta_mean_motion_ddot": 0,
        "tle_line1": "1 37535U 93036BNQ 25336.76642367  .00005729  00000+0  12368-2 0  9998",
        "tle_line2": "2 37535  74.0242  92.4973 0028279 232.6433 250.3240 14.58325970851799"
      },
      "geometry": {
        "type": "Point",
        "coordinates": [
          -108.1605229574784,
          49.152999614705834
        ]
      }
    },
    {
      "type": "Feature",
      "properties": {
        "norad_id": 37537,
        "name": "COSMOS 2251 DEB",
        "group": "cosmos-2251-debris",
        "lat": -58.58070614472609,
        "lon": -105.75005922886604,
        "alt_km": 795.2519640202163,
        "timestamp": "2025-12-03T10:52:57.854312+00:00",
        "meta_object_name": "COSMOS 2251 DEB",
        "meta_object_id": "1993-036BNS",
        "meta_epoch": "2025-12-03T02:49:20.436096",
        "meta_mean_motion": 14.37467313,
        "meta_eccentricity": 0.0049968,
        "meta_inclination": 74.0121,
        "meta_ra_of_asc_node": 282.86,
        "meta_arg_of_pericenter": 65.6493,
        "meta_mean_anomaly": 294.9866,
        "meta_ephemeris_type": 0,
        "meta_classification_type": "U",
        "meta_norad_cat_id": 37537,
        "meta_element_set_no": 999,
        "meta_rev_at_epoch": 84895,
        "meta_bstar": 0.00030991,
        "meta_mean_motion_dot": 9.15e-06,
        "meta_mean_motion_ddot": 0,
        "tle_line1": "1 37537U 93036BNS 25337.11759764  .00000915  00000+0  30991-3 0  9995",
        "tle_line2": "2 37537  74.0121 282.8600 0049968  65.6493 294.9866 14.37467313848954"
      },
      "geometry": {
        "type": "Point",
        "coordinates": [
          -105.75005922886604,
          -58.58070614472609
        ]
      }
    },
    {
      "type": "Feature",
      "properties": {
        "norad_id": 37546,
        "name": "COSMOS 2251 DEB",
        "group": "cosmos-2251-debris",
        "lat": 27.796202979967283,
        "lon": 125.00464925617567,
        "alt_km": 630.2085717295859,
        "timestamp": "2025-12-03T10:52:57.854322+00:00",
        "meta_object_name": "COSMOS 2251 DEB",
        "meta_object_id": "1993-036BPB",
        "meta_epoch": "2025-12-03T02:38:22.650432",
        "meta_mean_motion": 14.79842657,
        "meta_eccentricity": 0.0006869,
        "meta_inclination": 74.0213,
        "meta_ra_of_asc_node": 116.9936,
        "meta_arg_of_pericenter": 143.9263,
        "meta_mean_anomaly": 216.2378,
        "meta_ephemeris_type": 0,
        "meta_classification_type": "U",
        "meta_norad_cat_id": 37546,
        "meta_element_set_no": 999,
        "meta_rev_at_epoch": 65745,
        "meta_bstar": 0.0040496,
        "meta_mean_motion_dot": 0.00030644,
        "meta_mean_motion_ddot": 0,
        "tle_line1": "1 37546U 93036BPB 25337.10998438  .00030644  00000+0  40496-2 0  9999",
        "tle_line2": "2 37546  74.0213 116.9936 0006869 143.9263 216.2378 14.79842657657455"
      },
      "geometry": {
        "type": "Point",
        "coordinates": [
          125.00464925617567,
          27.796202979967283
        ]
      }
    }
  ]
}